NORAD_CAT_ID,OBJECT_NAME,OBJECT_TYPE,EPOCH,MEAN_MOTION,ECCENTRICITY,INCLINATION,RA_OF_ASC_NODE,ARG_OF_PERICENTER,MEAN_ANOMALY,BSTAR,MEAN_MOTION_DOT,MEAN_MOTION_DDOT,TLE_LINE0,TLE_LINE1,TLE_LINE2,SEMIMAJOR_AXIS,PERIOD,APOGEE,PERIGEE,DECAYED
54007.0,STARLINK-5132,PAYLOAD,2024-04-25 04:45:52,15.08853832,0.000172,53.2177,42.0735,121.6244,238.4917,0.00045566,6.974e-05,0.0,0 STARLINK-5132,1 54007U 22125AV  24116.19852576  .00006974  00000-0  45566-3 0  9990,2 54007  53.2177  42.0735 0001720 121.6244 238.4917 15.08853832 86331,6917.838,95.437,540.893,538.513,0.0
54007.0,STARLINK-5132,PAYLOAD,2024-04-25 22:15:07,15.08842842,0.0002466,53.2171,38.7943,144.7862,215.3293,0.00019255,2.778e-05,0.0,0 STARLINK-5132,1 54007U 22125AV  24116.92716824  .00002778  00000-0  19255-3 0  9990,2 54007  53.2171  38.7943 0002466 144.7862 215.3293 15.08842842 86394,6917.872,95.437,541.443,538.031,0.0
54007.0,STARLINK-5132,PAYLOAD,2024-04-26 04:36:39,15.0884449,0.0001393,53.2183,37.6115,125.1151,234.9972,0.00031647,4.753e-05,0.0,0 STARLINK-5132,1 54007U 22125AV  24117.19212751  .00004753  00000-0  31647-3 0  9994,2 54007  53.2183  37.6115 0001393 125.1151 234.9972 15.08844490 86480,6917.867,95.437,540.695,538.768,0.0
54007.0,STARLINK-5132,PAYLOAD,2024-04-26 22:05:54,15.08849594,0.0001323,53.2169,34.3417,103.9483,256.1657,0.00032669,4.917e-05,0.0,0 STARLINK-5132,1 54007U 22125AV  24117.92076692  .00004917  00000-0  32669-3 0  9994,2 54007  53.2169  34.3417 0001323 103.9483 256.1657 15.08849594 86541,6917.851,95.437,540.631,538.801,0.0
54007.0,STARLINK-5132,PAYLOAD,2024-04-27 10:48:59,15.08857424,0.0001178,53.2173,31.9671,83.5613,276.5513,0.00064498,9.997e-05,0.0,0 STARLINK-5132,1 54007U 22125AV  24118.45068706  .00009997  00000-0  64498-3 0  9998,2 54007  53.2173  31.9671 0001178  83.5613 276.5513 15.08857424 86679,6917.827,95.436,540.507,538.877,0.0
54007.0,STARLINK-5132,PAYLOAD,2024-04-27 18:45:55,15.0882234,0.0001443,53.2174,30.4818,74.7371,285.3781,-0.00023404,-4.009e-05,0.0,0 STARLINK-5132,1 54007U 22125AV  24118.78189437 -.00004009  00000-0 -23404-3 0  9992,2 54007  53.2174  30.4818 0001443  74.7371 285.3781 15.08822340 86725,6917.934,95.439,540.798,538.801,0.0
54007.0,STARLINK-5132,PAYLOAD,2024-04-27 21:56:42,15.08824745,0.0001393,53.2177,29.8873,78.3693,281.7456,4.534e-05,4.33e-06,0.0,0 STARLINK-5132,1 54007U 22125AV  24118.91437584  .00000433  00000-0  45340-4 0  9995,2 54007  53.2177  29.8873 0001393  78.3693 281.7456 15.08824745 86698,6917.927,95.439,540.756,538.828,0.0
54007.0,STARLINK-5132,PAYLOAD,2024-04-28 10:39:47,15.08837433,0.0001382,53.2178,27.5098,80.5386,279.5762,0.001204,0.00018924,0.0,0 STARLINK-5132,1 54007U 22125AV  24119.44430036  .00018924  00000-0  12040-2 0  9992,2 54007  53.2178  27.5098 0001382  80.5386 279.5762 15.08837433 86823,6917.888,95.438,540.709,538.797,0.0
54007.0,STARLINK-5132,PAYLOAD,2024-04-28 21:47:29,15.08850114,0.0001332,53.2171,25.4282,81.2142,278.9001,0.0009324,0.00014586,0.0,0 STARLINK-5132,1 54007U 22125AV  24119.90797857  .00014586  00000-0  93240-3 0  9992,2 54007  53.2171  25.4282 0001332  81.2142 278.9001 15.08850114 86843,6917.849,95.437,540.636,538.793,0.0
54007.0,STARLINK-5132,PAYLOAD,2024-04-29 10:30:34,15.08852492,8.79e-05,53.2146,23.0478,71.8645,288.2443,0.00042667,6.511e-05,0.0,0 STARLINK-5132,1 54007U 22125AV  24120.43789392  .00006511  00000-0  42667-3 0  9993,2 54007  53.2146  23.0478 0000879  71.8645 288.2443 15.08852492 86973,6917.842,95.437,540.315,539.099,0.0
54007.0,STARLINK-5132,PAYLOAD,2024-04-29 21:38:16,15.08846492,0.000192,53.2174,20.9676,80.0397,280.0811,0.00030906,4.635e-05,0.0,0 STARLINK-5132,1 54007U 22125AV  24120.90157803  .00004635  00000-0  30906-3 0  9999,2 54007  53.2174  20.9676 0001920  80.0397 280.0811 15.08846492 86998,6917.861,95.437,541.054,538.397,0.0
54007.0,STARLINK-5132,PAYLOAD,2024-04-30 02:24:25,15.08843232,0.000155,53.2173,20.0719,74.1516,285.9647,0.00024698,3.645e-05,0.0,0 STARLINK-5132,1 54007U 22125AV  24121.10029768  .00003645  00000-0  24698-3 0  9991,2 54007  53.2173  20.0719 0001550  74.1516 285.9647 15.08843232 87072,6917.871,95.437,540.808,538.663,0.0
54007.0,STARLINK-5132,PAYLOAD,2024-04-30 10:21:21,15.08847146,0.0001393,53.2163,18.5871,80.7498,279.3651,0.00028059,4.181e-05,0.0,0 STARLINK-5132,1 54007U 22125AV  24121.43149562  .00004181  00000-0  28059-3 0  9993,2 54007  53.2163  18.5871 0001393  80.7498 279.3651 15.08847146 87079,6917.859,95.437,540.687,538.76,0.0
54007.0,STARLINK-5132,PAYLOAD,2024-04-30 23:04:26,15.08849242,0.0001388,53.2156,16.2087,82.3632,277.7518,0.00042112,6.422e-05,0.0,0 STARLINK-5132,1 54007U 22125AV  24121.96141512  .00006422  00000-0  42112-3 0  9994,2 54007  53.2156  16.2087 0001388  82.3632 277.7518 15.08849242 87159,6917.852,95.437,540.677,538.757,0.0
54007.0,STARLINK-5132,PAYLOAD,2024-05-01 10:12:07,15.08849651,0.0001372,53.2145,14.1236,89.3354,270.7795,0.00029354,4.388e-05,0.0,0 STARLINK-5132,1 54007U 22125AV  24122.42509193  .00004388  00000-0  29354-3 0  9991,2 54007  53.2145  14.1236 0001372  89.3354 270.7795 15.08849651 87278,6917.851,95.437,540.665,538.767,0.0
54007.0,STARLINK-5132,PAYLOAD,2024-05-01 22:55:12,15.08853128,0.0001481,53.2142,11.7452,82.2962,277.8198,0.0003017,4.519e-05,0.0,0 STARLINK-5132,1 54007U 22125AV  24122.95500892  .00004519  00000-0  30170-3 0  9990,2 54007  53.2142  11.7452 0001481  82.2962 277.8198 15.08853128 87309,6917.84,95.437,540.73,538.681,0.0
54007.0,STARLINK-5132,PAYLOAD,2024-05-02 10:02:54,15.08851575,0.0001268,53.216,9.6655,77.5311,282.5823,0.00024329,3.587e-05,0.0,0 STARLINK-5132,1 54007U 22125AV  24123.41868757  .00003587  00000-0  24329-3 0  9992,2 54007  53.2160   9.6655 0001268  77.5311 282.5823 15.08851575 87423,6917.845,95.437,540.587,538.833,0.0
54007.0,STARLINK-5132,PAYLOAD,2024-05-02 21:10:36,15.08843491,0.000164,53.2166,7.5842,87.3203,272.7977,5.297e-05,5.55e-06,0.0,0 STARLINK-5132,1 54007U 22125AV  24123.88237107  .00000555  00000-0  52970-4 0  9998,2 54007  53.2166   7.5842 0001640  87.3203 272.7977 15.08843491 87493,6917.87,95.437,540.869,538.6,0.0
54007.0,STARLINK-5132,PAYLOAD,2024-05-02 22:45:59,15.08845248,0.0001434,53.217,7.2861,92.0093,268.1064,0.00010058,1.313e-05,0.0,0 STARLINK-5132,1 54007U 22125AV  24123.94861002  .00001313  00000-0  10058-3 0  9995,2 54007  53.2170   7.2861 0001434  92.0093 268.1064 15.08845248 87451,6917.864,95.437,540.721,538.737,0.0
54007.0,STARLINK-5132,PAYLOAD,2024-05-03 22:36:46,15.08847337,0.0001457,53.2159,2.8276,77.6889,282.4266,7.4019e-05,8.9e-06,0.0,0 STARLINK-5132,1 54007U 22125AV  24124.94220637  .00000890  00000-0  74019-4 0  9996,2 54007  53.2159   2.8276 0001457  77.6889 282.4266 15.08847337 87607,6917.858,95.437,540.731,538.715,0.0
54007.0,STARLINK-5132,PAYLOAD,2024-05-04 01:47:32,15.08846896,0.0001496,53.2164,2.2312,83.2823,276.8339,0.00017335,2.472e-05,0.0,0 STARLINK-5132,1 54007U 22125AV  24125.07468616  .00002472  00000-0  17335-3 0  9997,2 54007  53.2164   2.2312 0001496  83.2823 276.8339 15.08846896 87676,6917.859,95.437,540.759,538.689,0.0
54007.0,STARLINK-5132,PAYLOAD,2024-05-04 20:52:11,15.08832937,0.00013,53.2165,358.659,89.213,270.9011,3.6096e-05,2.87e-06,0.0,0 STARLINK-5132,1 54007U 22125AV  24125.86957862  .00000287  00000-0  36096-4 0  9998,2 54007  53.2165 358.6590 0001300  89.2130 270.9011 15.08832937 87790,6917.902,95.438,540.666,538.868,0.0
54007.0,STARLINK-5132,PAYLOAD,2024-05-05 01:38:20,15.08837431,0.0001263,53.2168,357.7703,86.5695,273.5441,2.4334e-05,9.9e-07,0.0,0 STARLINK-5132,1 54007U 22125AV  24126.06829359  .00000099  00000-0  24334-4 0  9993,2 54007  53.2168 357.7703 0001263  86.5695 273.5441 15.08837431 87827,6917.888,95.438,540.627,538.88,0.0
54007.0,STARLINK-5132,PAYLOAD,2024-05-05 22:18:21,15.0884103,0.0001252,53.2177,353.9047,84.1489,275.9646,8.6698e-05,1.092e-05,0.0,0 STARLINK-5132,1 54007U 22125AV  24126.92941633  .00001092  00000-0  86698-4 0  9993,2 54007  53.2177 353.9047 0001252  84.1489 275.9646 15.08841030 87901,6917.877,95.437,540.608,538.876,0.0
54007.0,STARLINK-5132,PAYLOAD,2024-05-06 07:50:40,15.08843807,0.0001306,53.2175,352.1209,82.5441,277.57,0.00012352,1.679e-05,0.0,0 STARLINK-5132,1 54007U 22125AV  24127.32685458  .00001679  00000-0  12352-3 0  9994,2 54007  53.2175 352.1209 0001306  82.5441 277.5700 15.08843807 88016,6917.869,95.437,540.637,538.83,0.0
54007.0,STARLINK-5132,PAYLOAD,2024-05-06 22:09:08,15.08847416,0.0001496,53.2181,349.4459,99.0741,261.0421,0.00024906,3.679e-05,0.0,0 STARLINK-5132,1 54007U 22125AV  24127.92301439  .00003679  00000-0  24906-3 0  9994,2 54007  53.2181 349.4459 0001496  99.0741 261.0421 15.08847416 88057,6917.858,95.437,540.758,538.688,0.0
54007.0,STARLINK-5132,PAYLOAD,2024-05-07 07:41:27,15.08839055,0.00016,53.2176,347.6599,86.8346,273.283,0.00011193,1.494e-05,0.0,0 STARLINK-5132,1 54007U 22125AV  24128.32046008  .00001494  00000-0  11193-3 0  9994,2 54007  53.2176 347.6599 0001600  86.8346 273.2830 15.08839055 88169,6917.883,95.438,540.855,538.641,0.0
54007.0,STARLINK-5132,PAYLOAD,2024-05-07 21:59:56,15.08834463,0.0001455,53.2177,344.9851,87.2465,272.8694,-1.2559e-05,-4.88e-06,0.0,0 STARLINK-5132,1 54007U 22125AV  24128.91662387 -.00000488  00000-0 -12559-4 0  9995,2 54007  53.2177 344.9851 0001455  87.2465 272.8694 15.08834463 88202,6917.897,95.438,540.769,538.756,0.0
54007.0,STARLINK-5132,PAYLOAD,2024-05-08 07:32:15,15.08838197,0.0001481,53.2178,343.2004,86.3785,273.7376,5.8032e-05,6.36e-06,0.0,0 STARLINK-5132,1 54007U 22125AV  24129.31406385  .00000636  00000-0  58032-4 0  9993,2 54007  53.2178 343.2004 0001481  86.3785 273.7376 15.08838197 88260,6917.886,95.438,540.775,538.726,0.0
54007.0,STARLINK-5132,PAYLOAD,2024-05-08 20:15:19,15.08847365,0.0001219,53.2161,340.8208,93.7289,266.3842,0.00012393,1.685e-05,0.0,0 STARLINK-5132,1 54007U 22125AV  24129.84397922  .00001685  00000-0  12393-3 0  9991,2 54007  53.2161 340.8208 0001219  93.7289 266.3842 15.08847365 88398,6917.858,95.437,540.566,538.88,0.0
